[
    {
        "Altitude(m)": 604969.0889860754,
        "Argument of Periapsis(deg)": 0.0,
        "Eccentricity": 0.0,
        "Inclination(deg)": 60.0,
        "Latitude(deg)": -0.09253517400946693,
        "Longitude(deg)": 84.97752765664245,
        "Mean Anomaly(deg)": 0.0,
        "RAAN(deg)": 184.99999999999997,
        "Satellite Name": "Test1 814",
        "Satellite Number": 814,
        "Semi-Major Axis(m)": 6980739.136638005,
        "Time(s)": 0
    },
    {
        "Altitude(m)": 604900.0293603351,
        "Argument of Periapsis(deg)": 0.00010418945913296404,
        "Eccentricity": 0.0,
        "Inclination(deg)": 60.0,
        "Latitude(deg)": 0.4478908713463398,
        "Longitude(deg)": 85.24565038866639,
        "Mean Anomaly(deg)": 0.6201061454618275,
        "RAAN(deg)": 184.99957995086024,
        "Satellite Name": "Test1 814",
        "Satellite Number": 814,
        "Semi-Major Axis(m)": 6980739.136638005,
        "Time(s)": 10
    }
]